start=new Date('2021-11-25T00:00:00.000Z').valueOf();
sats=[{"ECCENTRICITY":"0.00018840","RCS_SIZE":"MEDIUM","TLE_LINE1":"1 48568U 21041R   21328.48622713 -.00000042  00000-0  16088-4 0  9992","DECAY_DATE":null,"TIME_SYSTEM":"UTC","REV_AT_EPOCH":"2913","PERIAPSIS":"545.929","OBJECT_NAME":"STARLINK-2217","COUNTRY_CODE":"US","EPOCH":"2021-11-24T11:40:10.024032","ELEMENT_SET_NO":"999","MEAN_MOTION":"15.06393390","SITE":"AFETR","ARG_OF_PERICENTER":"62.9662","PERIOD":"95.593","TLE_LINE2":"2 48568  53.0532 322.5766 0001884  62.9662 297.1519 15.06393390 29132","SEMIMAJOR_AXIS":"6925.369","RA_OF_ASC_NODE":"322.5766","OBJECT_ID":"2021-041R","MEAN_MOTION_DDOT":"0.0000000000000","MEAN_ELEMENT_THEORY":"SGP4","CLASSIFICATION_TYPE":"U","INCLINATION":"53.0532","NORAD_CAT_ID":"48568","CENTER_NAME":"EARTH","APOAPSIS":"548.539","EPHEMERIS_TYPE":"0","GP_ID":"190399488","OBJECT_TYPE":"PAYLOAD","LAUNCH_DATE":"2021-05-15","MEAN_MOTION_DOT":"-0.00000042","BSTAR":"0.00001608800000","FILE":"3223022","REF_FRAME":"TEME","MEAN_ANOMALY":"297.1519"},{"CENTER_NAME":"EARTH","NORAD_CAT_ID":"48569","CLASSIFICATION_TYPE":"U","INCLINATION":"53.0555","GP_ID":"190399947","APOAPSIS":"548.464","EPHEMERIS_TYPE":"0","OBJECT_TYPE":"PAYLOAD","BSTAR":"0.00017920000000","REF_FRAME":"TEME","FILE":"3223022","MEAN_ANOMALY":"298.2477","LAUNCH_DATE":"2021-05-15","MEAN_MOTION_DOT":"0.00002389","RCS_SIZE":"LARGE","ECCENTRICITY":"0.00018360","TIME_SYSTEM":"UTC","REV_AT_EPOCH":"2912","TLE_LINE1":"1 48569U 21041S   21328.37932762  .00002389  00000-0  17920-3 0  9999","DECAY_DATE":null,"MEAN_MOTION":"15.06406936","SITE":"AFETR","ARG_OF_PERICENTER":"61.8697","COUNTRY_CODE":"US","EPOCH":"2021-11-24T09:06:13.906368","OBJECT_NAME":"STARLINK-2219","PERIAPSIS":"545.921","ELEMENT_SET_NO":"999","MEAN_MOTION_DDOT":"0.0000000000000","MEAN_ELEMENT_THEORY":"SGP4","RA_OF_ASC_NODE":"323.0708","SEMIMAJOR_AXIS":"6925.327","TLE_LINE2":"2 48569  53.0555 323.0708 0001836  61.8697 298.2477 15.06406936 29128","PERIOD":"95.592","OBJECT_ID":"2021-041S"},{"LAUNCH_DATE":"2021-05-15","MEAN_MOTION_DOT":"-0.00000525","BSTAR":"-0.00001634300000","MEAN_ANOMALY":"302.5233","FILE":"3223022","REF_FRAME":"TEME","GP_ID":"190399369","APOAPSIS":"548.399","EPHEMERIS_TYPE":"0","OBJECT_TYPE":"PAYLOAD","INCLINATION":"53.0551","CLASSIFICATION_TYPE":"U","CENTER_NAME":"EARTH","NORAD_CAT_ID":"48570","RA_OF_ASC_NODE":"332.8103","SEMIMAJOR_AXIS":"6925.372","PERIOD":"95.593","TLE_LINE2":"2 48570  53.0551 332.8103 0001679  57.5919 302.5233 15.06392456 28980","OBJECT_ID":"2021-041T","MEAN_MOTION_DDOT":"0.0000000000000","MEAN_ELEMENT_THEORY":"SGP4","EPOCH":"2021-11-24T10:24:31.597056","COUNTRY_CODE":"US","OBJECT_NAME":"STARLINK-2220","PERIAPSIS":"546.074","ELEMENT_SET_NO":"999","SITE":"AFETR","MEAN_MOTION":"15.06392456","ARG_OF_PERICENTER":"57.5919","TLE_LINE1":"1 48570U 21041T   21328.43369904 -.00000525  00000-0 -16343-4 0  9991","DECAY_DATE":null,"TIME_SYSTEM":"UTC","REV_AT_EPOCH":"2898","ECCENTRICITY":"0.00016790","RCS_SIZE":"LARGE"},{"TLE_LINE2":"2 48571  53.0574 333.6801 0001659  63.8584 296.2575 15.06384508 28961","PERIOD":"95.593","RA_OF_ASC_NODE":"333.6801","SEMIMAJOR_AXIS":"6925.396","OBJECT_ID":"2021-041U","MEAN_MOTION_DDOT":"0.0000000000000","MEAN_ELEMENT_THEORY":"SGP4","PERIAPSIS":"546.112","OBJECT_NAME":"STARLINK-2221","COUNTRY_CODE":"US","EPOCH":"2021-11-24T05:48:31.368672","ELEMENT_SET_NO":"999","SITE":"AFETR","MEAN_MOTION":"15.06384508","ARG_OF_PERICENTER":"63.8584","TLE_LINE1":"1 48571U 21041U   21328.24202973 -.00000367  00000-0 -57352-5 0  9993","DECAY_DATE":null,"TIME_SYSTEM":"UTC","REV_AT_EPOCH":"2896","ECCENTRICITY":"0.00016590","RCS_SIZE":"LARGE","LAUNCH_DATE":"2021-05-15","MEAN_MOTION_DOT":"-0.00000367","BSTAR":"-0.00000573520000","MEAN_ANOMALY":"296.2575","FILE":"3223022","REF_FRAME":"TEME","EPHEMERIS_TYPE":"0","APOAPSIS":"548.410","GP_ID":"190399615","OBJECT_TYPE":"PAYLOAD","CLASSIFICATION_TYPE":"U","INCLINATION":"53.0574","NORAD_CAT_ID":"48571","CENTER_NAME":"EARTH"},{"BSTAR":"0.00002800200000","FILE":"3223022","MEAN_ANOMALY":"297.6776","REF_FRAME":"TEME","LAUNCH_DATE":"2021-05-15","MEAN_MOTION_DOT":"0.00000136","GP_ID":"190399200","EPHEMERIS_TYPE":"0","APOAPSIS":"548.348","OBJECT_TYPE":"PAYLOAD","CENTER_NAME":"EARTH","NORAD_CAT_ID":"48572","INCLINATION":"53.0560","CLASSIFICATION_TYPE":"U","MEAN_MOTION_DDOT":"0.0000000000000","MEAN_ELEMENT_THEORY":"SGP4","RA_OF_ASC_NODE":"332.4943","SEMIMAJOR_AXIS":"6925.340","PERIOD":"95.592","TLE_LINE2":"2 48572  53.0560 332.4943 0001650  62.4380 297.6776 15.06402842 29007","OBJECT_ID":"2021-041V","MEAN_MOTION":"15.06402842","SITE":"AFETR","ARG_OF_PERICENTER":"62.4380","COUNTRY_CODE":"US","EPOCH":"2021-11-24T12:05:22.314336","OBJECT_NAME":"STARLINK-2222","PERIAPSIS":"546.062","ELEMENT_SET_NO":"999","TIME_SYSTEM":"UTC","REV_AT_EPOCH":"2900","TLE_LINE1":"1 48572U 21041V   21328.50373049  .00000136  00000-0  28002-4 0  9997","DECAY_DATE":null,"RCS_SIZE":"LARGE","ECCENTRICITY":"0.00016500"},{"MEAN_MOTION_DOT":"0.00000313","LAUNCH_DATE":"2021-05-15","MEAN_ANOMALY":"311.1320","FILE":"3222988","REF_FRAME":"TEME","BSTAR":"0.00003993200000","INCLINATION":"53.0542","CLASSIFICATION_TYPE":"U","NORAD_CAT_ID":"48573","CENTER_NAME":"EARTH","OBJECT_TYPE":"PAYLOAD","EPHEMERIS_TYPE":"0","APOAPSIS":"548.354","GP_ID":"190375448","ELEMENT_SET_NO":"999","OBJECT_NAME":"STARLINK-2224","PERIAPSIS":"546.088","EPOCH":"2021-11-24T09:59:18.874752","COUNTRY_CODE":"US","ARG_OF_PERICENTER":"48.9810","SITE":"AFETR","MEAN_MOTION":"15.06397553","OBJECT_ID":"2021-041W","TLE_LINE2":"2 48573  53.0542 322.8905 0001636  48.9810 311.1320 15.06397553 29571","PERIOD":"95.592","RA_OF_ASC_NODE":"322.8905","SEMIMAJOR_AXIS":"6925.356","MEAN_ELEMENT_THEORY":"SGP4","MEAN_MOTION_DDOT":"0.0000000000000","ECCENTRICITY":"0.00016360","RCS_SIZE":"LARGE","DECAY_DATE":null,"TLE_LINE1":"1 48573U 21041W   21328.41619068  .00000313  00000-0  39932-4 0  9993","REV_AT_EPOCH":"2957","TIME_SYSTEM":"UTC"},{"OBJECT_TYPE":"PAYLOAD","APOAPSIS":"548.682","EPHEMERIS_TYPE":"0","GP_ID":"190426569","INCLINATION":"53.0424","CLASSIFICATION_TYPE":"U","NORAD_CAT_ID":"48574","CENTER_NAME":"EARTH","MEAN_MOTION_DOT":"0.00013618","LAUNCH_DATE":"2021-05-15","FILE":"3223205","REF_FRAME":"TEME","MEAN_ANOMALY":"343.9090","BSTAR":"0.00093165000000","DECAY_DATE":null,"TLE_LINE1":"1 48574U 21041X   21328.91667824  .00013618  00000-0  93165-3 0  9991","REV_AT_EPOCH":"360","TIME_SYSTEM":"UTC","ECCENTRICITY":"0.00020640","RCS_SIZE":"LARGE","OBJECT_ID":"2021-041X","TLE_LINE2":"2 48574  53.0424 290.7045 0002064  62.0021 343.9090 15.06387182  3606","PERIOD":"95.593","RA_OF_ASC_NODE":"290.7045","SEMIMAJOR_AXIS":"6925.388","MEAN_ELEMENT_THEORY":"SGP4","MEAN_MOTION_DDOT":"0.0000000000000","ELEMENT_SET_NO":"999","OBJECT_NAME":"STARLINK-2225","PERIAPSIS":"545.823","EPOCH":"2021-11-24T22:00:00.999936","COUNTRY_CODE":"US","ARG_OF_PERICENTER":"62.0021","SITE":"AFETR","MEAN_MOTION":"15.06387182"},{"ECCENTRICITY":"0.00026700","RCS_SIZE":"LARGE","DECAY_DATE":null,"TLE_LINE1":"1 48575U 21041Y   21328.91667824 -.00005316  00000-0 -11262-3 0  9998","REV_AT_EPOCH":"365","TIME_SYSTEM":"UTC","ELEMENT_SET_NO":"999","OBJECT_NAME":"STARLINK-2227","PERIAPSIS":"437.834","EPOCH":"2021-11-24T22:00:00.999936","COUNTRY_CODE":"US","ARG_OF_PERICENTER":"22.5591","MEAN_MOTION":"15.42188377","SITE":"AFETR","OBJECT_ID":"2021-041Y","TLE_LINE2":"2 48575  53.0562 286.5457 0002670  22.5591 172.4277 15.42188377  3658","PERIOD":"93.374","RA_OF_ASC_NODE":"286.5457","SEMIMAJOR_AXIS":"6817.789","MEAN_ELEMENT_THEORY":"SGP4","MEAN_MOTION_DDOT":"0.0000000000000","CLASSIFICATION_TYPE":"U","INCLINATION":"53.0562","NORAD_CAT_ID":"48575","CENTER_NAME":"EARTH","OBJECT_TYPE":"PAYLOAD","APOAPSIS":"441.474","EPHEMERIS_TYPE":"0","GP_ID":"190426693","MEAN_MOTION_DOT":"-0.00005316","LAUNCH_DATE":"2021-05-15","REF_FRAME":"TEME","FILE":"3223205","MEAN_ANOMALY":"172.4277","BSTAR":"-0.00011262000000"},{"MEAN_MOTION_DOT":"-0.00032382","LAUNCH_DATE":"2021-05-15","REF_FRAME":"TEME","FILE":"3223205","MEAN_ANOMALY":"297.1278","BSTAR":"-0.00226100000000","OBJECT_TYPE":"PAYLOAD","APOAPSIS":"553.913","EPHEMERIS_TYPE":"0","GP_ID":"190426948","CLASSIFICATION_TYPE":"U","INCLINATION":"53.0578","NORAD_CAT_ID":"48576","CENTER_NAME":"EARTH","OBJECT_ID":"2021-041Z","TLE_LINE2":"2 48576  53.0578 295.4155 0002537  47.2658 297.1278 15.04789102  3590","PERIOD":"95.694","SEMIMAJOR_AXIS":"6930.290","RA_OF_ASC_NODE":"295.4155","MEAN_ELEMENT_THEORY":"SGP4","MEAN_MOTION_DDOT":"0.0000000000000","ELEMENT_SET_NO":"999","OBJECT_NAME":"STARLINK-2228","PERIAPSIS":"550.397","EPOCH":"2021-11-24T22:00:00.999936","COUNTRY_CODE":"US","ARG_OF_PERICENTER":"47.2658","SITE":"AFETR","MEAN_MOTION":"15.04789102","DECAY_DATE":null,"TLE_LINE1":"1 48576U 21041Z   21328.91667824 -.00032382  00000-0 -22610-2 0  9990","REV_AT_EPOCH":"359","TIME_SYSTEM":"UTC","ECCENTRICITY":"0.00025370","RCS_SIZE":"LARGE"},{"RCS_SIZE":"LARGE","ECCENTRICITY":"0.00018480","REV_AT_EPOCH":"2912","TIME_SYSTEM":"UTC","DECAY_DATE":null,"TLE_LINE1":"1 48577U 21041AA  21328.40881001 -.00000094  00000-0  12611-4 0  9996","ARG_OF_PERICENTER":"56.6026","SITE":"AFETR","MEAN_MOTION":"15.06403621","ELEMENT_SET_NO":"999","EPOCH":"2021-11-24T09:48:41.184864","COUNTRY_CODE":"US","OBJECT_NAME":"STARLINK-2231","PERIAPSIS":"545.923","MEAN_ELEMENT_THEORY":"SGP4","MEAN_MOTION_DDOT":"0.0000000000000","OBJECT_ID":"2021-041AA","RA_OF_ASC_NODE":"322.9307","SEMIMAJOR_AXIS":"6925.337","TLE_LINE2":"2 48577  53.0542 322.9307 0001848  56.6026 303.5140 15.06403621 29122","PERIOD":"95.592","CENTER_NAME":"EARTH","NORAD_CAT_ID":"48577","CLASSIFICATION_TYPE":"U","INCLINATION":"53.0542","OBJECT_TYPE":"PAYLOAD","GP_ID":"190399948","EPHEMERIS_TYPE":"0","APOAPSIS":"548.482","MEAN_ANOMALY":"303.5140","FILE":"3223022","REF_FRAME":"TEME","BSTAR":"0.00001261100000","MEAN_MOTION_DOT":"-0.00000094","LAUNCH_DATE":"2021-05-15"}];
